HULIANWANG DIGUI-28     
1 63695U 25086J   26199.82298650  .00000033  00000+0  43015-4 0  9999
2 63695  86.5021 302.2751 0002149 110.8717 249.2647 13.24411112 59046
HULIANWANG DIGUI-29     
1 63696U 25086K   26199.81546457  .00000030  00000+0  36296-4 0  9990
2 63696  86.5049 302.3942 0002020 113.2915 246.8432 13.24411510 59042
HULIANWANG DIGUI-30     
1 64283U 25121A   26199.82290823  .00000009  00000+0 -13761-4 0  9996
2 64283  86.5000   2.8815 0001936  89.0013 271.1343 13.24409590 54342
HULIANWANG DIGUI-31     
1 64284U 25121B   26199.81539197  .00000009  00000+0 -13957-4 0  9993
2 64284  86.5014   2.9616 0001861  88.9790 271.1557 13.24414498 54345
HULIANWANG DIGUI-32     
1 64285U 25121C   26199.80770468  .00000017  00000+0  49427-5 0  9991
2 64285  86.4962   2.7167 0001909  93.6797 266.4555 13.24410399 54340
HULIANWANG DIGUI-33     
1 64286U 25121D   26199.80015668  .00000029  00000+0  33697-4 0  9990
2 64286  86.5019   2.9500 0001948  89.8307 270.3050 13.24409995 54349
HULIANWANG DIGUI-34     
1 64287U 25121E   26199.79263753  .00000040  00000+0  57963-4 0  9994
2 64287  86.4997   2.8552 0002108  81.5702 278.5671 13.24410687 54346
HULIANWANG DIGUI-35     
1 64956U 25159A   26199.83057644  .00000050  00000+0  81665-4 0  9990
2 64956  86.4936 271.7404 0004333  58.8099 301.3459 13.24413298 47312
HULIANWANG DIGUI-36     
1 64957U 25159B   26199.82667617  .00000043  00000+0  65965-4 0  9994
2 64957  86.4956 271.8081 0001662 103.4063 256.7256 13.24408733 47313
HULIANWANG DIGUI-37     
1 64958U 25159C   26199.81910375  .00000037  00000+0  52534-4 0  9997
2 64958  86.4897 271.5960 0001780  98.5637 261.5699 13.24409479 47316
HULIANWANG DIGUI-38     
1 64959U 25159D   26199.81158528  .00000030  00000+0  36293-4 0  9999
2 64959  86.4956 271.8010 0001840  99.2917 260.8425 13.24409189 47315
HULIANWANG DIGUI-39     
1 64960U 25159E   26199.80401801  .00000027  00000+0  28640-4 0  9998
2 64960  86.4932 271.7117 0001822 102.2406 257.8932 13.24409090 47316
HULIANWANG DIGUI-40     
1 65043U 25162A   26199.89184718 -.00000108  00000+0  35274-4 0  9991
2 65043  49.9982 152.2194 0000274 336.3593  23.7266 13.29327465 47560
HULIANWANG DIGUI-41     
1 65044U 25162B   26199.88351161 -.00000115  00000+0  20527-4 0  9992
2 65044  49.9993 152.2037 0000265 347.8827  12.2039 13.29327007 47570
HULIANWANG DIGUI-42     
1 65045U 25162C   26199.87509025 -.00000116  00000+0  16876-4 0  9999
2 65045  49.9958 152.0627 0000266 336.0895  23.9964 13.29327632 47571
HULIANWANG DIGUI-43     
1 65046U 25162D   26199.86677801 -.00000111  00000+0  28986-4 0  9997
2 65046  49.9975 152.0688 0000308 331.9589  28.1266 13.29326196 47575
