{"fetched_at":"2026-07-19T07:05:14.667Z","source":"https://celestrak.org/NORAD/elements/gp.php?NAME=HULIANWANG&FORMAT=JSON","constellation":"guowang","records":[{"OBJECT_NAME":"HULIANWANG DIGUI-28","OBJECT_ID":"2025-086J","EPOCH":"2026-07-18T19:45:06.033600","CLASSIFICATION_TYPE":"U","MEAN_MOTION":13.24411112,"ECCENTRICITY":0.0002149,"INCLINATION":86.5021,"RA_OF_ASC_NODE":302.2751,"ARG_OF_PERICENTER":110.8717,"MEAN_ANOMALY":249.2647,"EPHEMERIS_TYPE":0,"NORAD_CAT_ID":63695,"ELEMENT_SET_NO":999,"REV_AT_EPOCH":5904,"BSTAR":0.000043015,"MEAN_MOTION_DOT":3.3e-7,"MEAN_MOTION_DDOT":0},{"OBJECT_NAME":"HULIANWANG DIGUI-29","OBJECT_ID":"2025-086K","EPOCH":"2026-07-18T19:34:16.138848","CLASSIFICATION_TYPE":"U","MEAN_MOTION":13.2441151,"ECCENTRICITY":0.000202,"INCLINATION":86.5049,"RA_OF_ASC_NODE":302.3942,"ARG_OF_PERICENTER":113.2915,"MEAN_ANOMALY":246.8432,"EPHEMERIS_TYPE":0,"NORAD_CAT_ID":63696,"ELEMENT_SET_NO":999,"REV_AT_EPOCH":5904,"BSTAR":0.000036296,"MEAN_MOTION_DOT":3e-7,"MEAN_MOTION_DDOT":0},{"OBJECT_NAME":"HULIANWANG DIGUI-30","OBJECT_ID":"2025-121A","EPOCH":"2026-07-18T19:44:59.271072","CLASSIFICATION_TYPE":"U","MEAN_MOTION":13.2440959,"ECCENTRICITY":0.0001936,"INCLINATION":86.5,"RA_OF_ASC_NODE":2.8815,"ARG_OF_PERICENTER":89.0013,"MEAN_ANOMALY":271.1343,"EPHEMERIS_TYPE":0,"NORAD_CAT_ID":64283,"ELEMENT_SET_NO":999,"REV_AT_EPOCH":5434,"BSTAR":-0.000013761,"MEAN_MOTION_DOT":9e-8,"MEAN_MOTION_DDOT":0},{"OBJECT_NAME":"HULIANWANG DIGUI-31","OBJECT_ID":"2025-121B","EPOCH":"2026-07-18T19:34:09.866208","CLASSIFICATION_TYPE":"U","MEAN_MOTION":13.24414498,"ECCENTRICITY":0.0001861,"INCLINATION":86.5014,"RA_OF_ASC_NODE":2.9616,"ARG_OF_PERICENTER":88.979,"MEAN_ANOMALY":271.1557,"EPHEMERIS_TYPE":0,"NORAD_CAT_ID":64284,"ELEMENT_SET_NO":999,"REV_AT_EPOCH":5434,"BSTAR":-0.000013957,"MEAN_MOTION_DOT":9e-8,"MEAN_MOTION_DDOT":0},{"OBJECT_NAME":"HULIANWANG DIGUI-32","OBJECT_ID":"2025-121C","EPOCH":"2026-07-18T19:23:05.684352","CLASSIFICATION_TYPE":"U","MEAN_MOTION":13.24410399,"ECCENTRICITY":0.0001909,"INCLINATION":86.4962,"RA_OF_ASC_NODE":2.7167,"ARG_OF_PERICENTER":93.6797,"MEAN_ANOMALY":266.4555,"EPHEMERIS_TYPE":0,"NORAD_CAT_ID":64285,"ELEMENT_SET_NO":999,"REV_AT_EPOCH":5434,"BSTAR":0.0000049427,"MEAN_MOTION_DOT":1.7e-7,"MEAN_MOTION_DDOT":0},{"OBJECT_NAME":"HULIANWANG DIGUI-33","OBJECT_ID":"2025-121D","EPOCH":"2026-07-18T19:12:13.537152","CLASSIFICATION_TYPE":"U","MEAN_MOTION":13.24409995,"ECCENTRICITY":0.0001948,"INCLINATION":86.5019,"RA_OF_ASC_NODE":2.95,"ARG_OF_PERICENTER":89.8307,"MEAN_ANOMALY":270.305,"EPHEMERIS_TYPE":0,"NORAD_CAT_ID":64286,"ELEMENT_SET_NO":999,"REV_AT_EPOCH":5434,"BSTAR":0.000033697,"MEAN_MOTION_DOT":2.9e-7,"MEAN_MOTION_DDOT":0},{"OBJECT_NAME":"HULIANWANG DIGUI-34","OBJECT_ID":"2025-121E","EPOCH":"2026-07-18T19:01:23.882592","CLASSIFICATION_TYPE":"U","MEAN_MOTION":13.24410687,"ECCENTRICITY":0.0002108,"INCLINATION":86.4997,"RA_OF_ASC_NODE":2.8552,"ARG_OF_PERICENTER":81.5702,"MEAN_ANOMALY":278.5671,"EPHEMERIS_TYPE":0,"NORAD_CAT_ID":64287,"ELEMENT_SET_NO":999,"REV_AT_EPOCH":5434,"BSTAR":0.000057963,"MEAN_MOTION_DOT":4e-7,"MEAN_MOTION_DDOT":0},{"OBJECT_NAME":"HULIANWANG DIGUI-35","OBJECT_ID":"2025-159A","EPOCH":"2026-07-18T19:56:01.804416","CLASSIFICATION_TYPE":"U","MEAN_MOTION":13.24413298,"ECCENTRICITY":0.0004333,"INCLINATION":86.4936,"RA_OF_ASC_NODE":271.7404,"ARG_OF_PERICENTER":58.8099,"MEAN_ANOMALY":301.3459,"EPHEMERIS_TYPE":0,"NORAD_CAT_ID":64956,"ELEMENT_SET_NO":999,"REV_AT_EPOCH":4731,"BSTAR":0.000081665,"MEAN_MOTION_DOT":5e-7,"MEAN_MOTION_DDOT":0},{"OBJECT_NAME":"HULIANWANG DIGUI-36","OBJECT_ID":"2025-159B","EPOCH":"2026-07-18T19:50:24.821088","CLASSIFICATION_TYPE":"U","MEAN_MOTION":13.24408733,"ECCENTRICITY":0.0001662,"INCLINATION":86.4956,"RA_OF_ASC_NODE":271.8081,"ARG_OF_PERICENTER":103.4063,"MEAN_ANOMALY":256.7256,"EPHEMERIS_TYPE":0,"NORAD_CAT_ID":64957,"ELEMENT_SET_NO":999,"REV_AT_EPOCH":4731,"BSTAR":0.000065965,"MEAN_MOTION_DOT":4.3e-7,"MEAN_MOTION_DDOT":0},{"OBJECT_NAME":"HULIANWANG DIGUI-37","OBJECT_ID":"2025-159C","EPOCH":"2026-07-18T19:39:30.564000","CLASSIFICATION_TYPE":"U","MEAN_MOTION":13.24409479,"ECCENTRICITY":0.000178,"INCLINATION":86.4897,"RA_OF_ASC_NODE":271.596,"ARG_OF_PERICENTER":98.5637,"MEAN_ANOMALY":261.5699,"EPHEMERIS_TYPE":0,"NORAD_CAT_ID":64958,"ELEMENT_SET_NO":999,"REV_AT_EPOCH":4731,"BSTAR":0.000052534,"MEAN_MOTION_DOT":3.7e-7,"MEAN_MOTION_DDOT":0},{"OBJECT_NAME":"HULIANWANG DIGUI-38","OBJECT_ID":"2025-159D","EPOCH":"2026-07-18T19:28:40.968192","CLASSIFICATION_TYPE":"U","MEAN_MOTION":13.24409189,"ECCENTRICITY":0.000184,"INCLINATION":86.4956,"RA_OF_ASC_NODE":271.801,"ARG_OF_PERICENTER":99.2917,"MEAN_ANOMALY":260.8425,"EPHEMERIS_TYPE":0,"NORAD_CAT_ID":64959,"ELEMENT_SET_NO":999,"REV_AT_EPOCH":4731,"BSTAR":0.000036293,"MEAN_MOTION_DOT":3e-7,"MEAN_MOTION_DDOT":0},{"OBJECT_NAME":"HULIANWANG DIGUI-39","OBJECT_ID":"2025-159E","EPOCH":"2026-07-18T19:17:47.156064","CLASSIFICATION_TYPE":"U","MEAN_MOTION":13.2440909,"ECCENTRICITY":0.0001822,"INCLINATION":86.4932,"RA_OF_ASC_NODE":271.7117,"ARG_OF_PERICENTER":102.2406,"MEAN_ANOMALY":257.8932,"EPHEMERIS_TYPE":0,"NORAD_CAT_ID":64960,"ELEMENT_SET_NO":999,"REV_AT_EPOCH":4731,"BSTAR":0.00002864,"MEAN_MOTION_DOT":2.7e-7,"MEAN_MOTION_DDOT":0},{"OBJECT_NAME":"HULIANWANG DIGUI-40","OBJECT_ID":"2025-162A","EPOCH":"2026-07-18T21:24:15.596352","CLASSIFICATION_TYPE":"U","MEAN_MOTION":13.29327465,"ECCENTRICITY":0.0000274,"INCLINATION":49.9982,"RA_OF_ASC_NODE":152.2194,"ARG_OF_PERICENTER":336.3593,"MEAN_ANOMALY":23.7266,"EPHEMERIS_TYPE":0,"NORAD_CAT_ID":65043,"ELEMENT_SET_NO":999,"REV_AT_EPOCH":4756,"BSTAR":0.000035274,"MEAN_MOTION_DOT":-0.00000108,"MEAN_MOTION_DDOT":0},{"OBJECT_NAME":"HULIANWANG DIGUI-41","OBJECT_ID":"2025-162B","EPOCH":"2026-07-18T21:12:15.403104","CLASSIFICATION_TYPE":"U","MEAN_MOTION":13.29327007,"ECCENTRICITY":0.0000265,"INCLINATION":49.9993,"RA_OF_ASC_NODE":152.2037,"ARG_OF_PERICENTER":347.8827,"MEAN_ANOMALY":12.2039,"EPHEMERIS_TYPE":0,"NORAD_CAT_ID":65044,"ELEMENT_SET_NO":999,"REV_AT_EPOCH":4757,"BSTAR":0.000020527,"MEAN_MOTION_DOT":-0.00000115,"MEAN_MOTION_DDOT":0},{"OBJECT_NAME":"HULIANWANG DIGUI-42","OBJECT_ID":"2025-162C","EPOCH":"2026-07-18T21:00:07.797600","CLASSIFICATION_TYPE":"U","MEAN_MOTION":13.29327632,"ECCENTRICITY":0.0000266,"INCLINATION":49.9958,"RA_OF_ASC_NODE":152.0627,"ARG_OF_PERICENTER":336.0895,"MEAN_ANOMALY":23.9964,"EPHEMERIS_TYPE":0,"NORAD_CAT_ID":65045,"ELEMENT_SET_NO":999,"REV_AT_EPOCH":4757,"BSTAR":0.000016876,"MEAN_MOTION_DOT":-0.00000116,"MEAN_MOTION_DDOT":0},{"OBJECT_NAME":"HULIANWANG DIGUI-43","OBJECT_ID":"2025-162D","EPOCH":"2026-07-18T20:48:09.620064","CLASSIFICATION_TYPE":"U","MEAN_MOTION":13.29326196,"ECCENTRICITY":0.0000308,"INCLINATION":49.9975,"RA_OF_ASC_NODE":152.0688,"ARG_OF_PERICENTER":331.9589,"MEAN_ANOMALY":28.1266,"EPHEMERIS_TYPE":0,"NORAD_CAT_ID":65046,"ELEMENT_SET_NO":999,"REV_AT_EPOCH":4757,"BSTAR":0.000028986,"MEAN_MOTION_DOT":-0.00000111,"MEAN_MOTION_DDOT":0}]}
